IRIDIUM 112             
1 41925U 17003J   25067.14960975  .00000335  00000+0  11245-3 0  9999
2 41925  86.3918 283.0344 0002131  91.8802 268.2638 14.34218306426477
IRIDIUM 111             
1 41926U 17003K   25067.13692382  .00000016  00000+0 -13253-5 0  9993
2 41926  86.3920 283.1001 0002118  84.6972 275.4465 14.34218334426452
IRIDIUM 113             
1 42803U 17039A   25067.25642674  .00000103  00000+0  29834-4 0  9996
2 42803  86.4038 156.9220 0002421 105.4996 254.6467 14.34217545404408
IRIDIUM 123             
1 42804U 17039B   25067.08859893  .00000175  00000+0  55523-4 0  9994
2 42804  86.4040 188.4069 0002103  89.4417 270.7020 14.34218604403140
IRIDIUM 120             
1 42805U 17039C   25067.25008455  .00000527  00000+0  18103-3 0  9997
2 42805  86.4025 156.7678 0001932  91.1403 269.0014 14.34217803404394
IRIDIUM 115             
1 42806U 17039D   25067.28467057  .00000642  00000+0  18489-3 0  9993
2 42806  86.4564 156.8175 0002617  81.1062 279.0435 14.43275246407067
IRIDIUM 118             
1 42807U 17039E   25066.84123735  .00000395  00000+0  13410-3 0  9991
2 42807  86.4039 188.5103 0002115 100.3032 259.8402 14.34219839403109
IRIDIUM 117             
1 42808U 17039F   25067.27887529  .00000501  00000+0  17165-3 0  9998
2 42808  86.4039 188.2899 0002269  89.1536 270.9920 14.34219070403197
